1 22566U 93016B   15157.18055323  .00000270  00000-0  16420-3 0  9991
2 22566 071.0065 184.3773 0010719 193.7609 166.3223 14.14903155146319
1 30239U 99025WY  17274.66134885 -.00003380  00000-0 -10778-1 0  9994
2 30239  99.7201 352.7287 1501976  18.9838 346.1492 11.08214317427131
1 44625U 19067B   19320.00000000 -.00000108 +00000-0 +00000-0 0  9999
2 44625 005.8940 173.6600 4204334 187.2290 047.7550 00.88800481000321
1 47944U 21022N   22332.42866722  .00001270  00000-0  82696-4 0  9999
2 47944  97.5125 228.8882 0016455 300.6026  59.3580 15.09630789 92767
1 27378U 02006A   23162.60553687 -.00000002  00000-0  00000-0 0  9992
2 27378   1.1620  90.7846 0006061 346.2835 291.3413  0.99833230 39537